[Satellite]
VERSION=1.1
NAME=GPS BIIF-8  (PRN 03)
NICKNAME=GPS BIIF-8  (PRN 03)
TLE1=1 40294U 14068A   19316.78999255  .00000065  00000-0  00000+0 0  9992
TLE2=2 40294  55.2420 125.5397 0024454  41.3451 318.8601  2.00563467 36883
STATUS=0
